ONEWEB-0549             
1 56051U 23043F   25019.41354537  .00000124  00000+0  26974-3 0  9995
2 56051  87.9323 346.3559 0001930  96.6424 263.4930 13.21828590 90353
ONEWEB-0550             
1 56052U 23043G   25019.40094335  .00000398  00000+0  93272-3 0  9990
2 56052  87.9322 346.3583 0001713  81.2931 278.8397 13.21829782 90353
ONEWEB-0551             
1 56053U 23043H   25019.46405538  .00000159  00000+0  38781-3 0  9997
2 56053  87.9083   1.5225 0001738  93.3258 266.8071 13.15549727 88853
ONEWEB-0552             
1 56054U 23043J   25019.39463630  .00000082  00000+0  16786-3 0  9993
2 56054  87.9321 346.3688 0001538  87.6303 272.5007 13.21827159 90353
ONEWEB-0553             
1 56055U 23043K   25019.36649434  .00000049  00000+0  95556-4 0  9995
2 56055  87.9115 331.1605 0002094  76.6392 283.4972 13.16595032 91360
ONEWEB-0554             
1 56056U 23043L   25019.35382403  .00000031  00000+0  47915-4 0  9992
2 56056  87.9120 331.1896 0001256  68.0862 292.0403 13.16593663 91346
ONEWEB-0555             
1 56057U 23043M   25019.39181948  .00000152  00000+0  36279-3 0  9992
2 56057  87.9118 331.1492 0002233  65.1357 295.0006 13.16594011 91350
ONEWEB-0557             
1 56058U 23043N   25019.40607404  .00000031  00000+0  47002-4 0  9998
2 56058  87.9117 331.1705 0002093  53.1864 306.9458 13.16594476 91359
